CIC_OEM_VERS = 2.0
CREATION_DATE  = 2023-03-26T22:49:40.827
ORIGINATOR     = TOLOSAT

META_START

COMMENT days (MJD), sec (UTC), x (km), y (km), z (km), vx (km/s), vy (km/s), vz (km/s)

OBJECT_NAME = IRIDIUM 180
OBJECT_ID = IRIDIUM 180

CENTER_NAME = EARTH
REF_FRAME   = EME2000
TIME_SYSTEM = TAI
START_TIME = 2024-01-02T11:59:55.000
STOP_TIME = 2024-01-03T11:59:55.000

META_STOP
60311 43232.0 -4583.550766 -5372.908805  1156.375385  0.787172  0.914767  7.366007
60311 43242.0 -4575.429671 -5363.468809  1229.971000  0.837032  0.973215  7.352982
60311 43252.0 -4566.810428 -5353.444867  1303.432360  0.886801  1.031555  7.339156
60311 43262.0 -4557.693985 -5342.838081  1376.751449  0.936471  1.089782  7.324529
60311 43272.0 -4548.081345 -5331.649620  1449.920268  0.986039  1.147890  7.309102
60311 43282.0 -4537.973567 -5319.880712  1522.930833  1.035498  1.205870  7.292878
60311 43292.0 -4527.371761 -5307.532653  1595.775179  1.084844  1.263719  7.275859
60311 43302.0 -4516.277093 -5294.606801  1668.445360  1.134070  1.321428  7.258045
60311 43312.0 -4504.690783 -5281.104577  1740.933448  1.183171  1.378992  7.239440
60311 43322.0 -4492.614107 -5267.027467  1813.231537  1.232142  1.436404  7.220046
60311 43332.0 -4480.048390 -5252.377016  1885.331743  1.280978  1.493659  7.199864
60311 43342.0 -4466.995014 -5237.154837  1957.226201  1.329673  1.550749  7.178897
60311 43352.0 -4453.455416 -5221.362603  2028.907072  1.378222  1.607669  7.157147
60311 43362.0 -4439.431081 -5205.002049  2100.366540  1.426619  1.664412  7.134617
60311 43372.0 -4424.923552 -5188.074973  2171.596814  1.474860  1.720972  7.111309
60311 43382.0 -4409.934424 -5170.583235  2242.590129  1.522938  1.777343  7.087225
60311 43392.0 -4394.465342 -5152.528758  2313.338745  1.570850  1.833519  7.062369
60311 43402.0 -4378.518006 -5133.913524  2383.834952  1.618588  1.889494  7.036744
60311 43412.0 -4362.094168 -5114.739579  2454.071065  1.666149  1.945260  7.010351
60311 43422.0 -4345.195633 -5095.009029  2524.039431  1.713527  2.000814  6.983195
60311 43432.0 -4327.824255 -5074.724040  2593.732427  1.760717  2.056147  6.955278
60311 43442.0 -4309.981943 -5053.886841  2663.142458  1.807713  2.111255  6.926603
60311 43452.0 -4291.670655 -5032.499718  2732.261963  1.854511  2.166131  6.897173
60311 43462.0 -4272.892403 -5010.565021  2801.083412  1.901105  2.220769  6.866992
60311 43472.0 -4253.649246 -4988.085157  2869.599311  1.947491  2.275163  6.836063
60311 43482.0 -4233.943298 -4965.062593  2937.802198  1.993663  2.329308  6.804390
60311 43492.0 -4213.776720 -4941.499856  3005.684645  2.039616  2.383197  6.771976
60311 43502.0 -4193.151727 -4917.399532  3073.239261  2.085345  2.436824  6.738825
60311 43512.0 -4172.070580 -4892.764264  3140.458694  2.130846  2.490184  6.704940
60311 43522.0 -4150.535592 -4867.596756  3207.335625  2.176112  2.543271  6.670325
60311 43532.0 -4128.549126 -4841.899768  3273.862775  2.221141  2.596079  6.634984
60311 43542.0 -4106.113592 -4815.676117  3340.032906  2.265925  2.648603  6.598922
60311 43552.0 -4083.231451 -4788.928681  3405.838818  2.310461  2.700836  6.562141
60311 43562.0 -4059.905212 -4761.660391  3471.273350  2.354744  2.752773  6.524647
60311 43572.0 -4036.137432 -4733.874237  3536.329385  2.398769  2.804408  6.486442
60311 43582.0 -4011.930716 -4705.573264  3600.999847  2.442530  2.855735  6.447533
60311 43592.0 -3987.287717 -4676.760575  3665.277703  2.486024  2.906750  6.407922
60311 43602.0 -3962.211136 -4647.439326  3729.155964  2.529246  2.957446  6.367614
60311 43612.0 -3936.703719 -4617.612730  3792.627685  2.572191  3.007818  6.326615
60311 43622.0 -3910.768262 -4587.284054  3855.685966  2.614853  3.057861  6.284927
60311 43632.0 -3884.407604 -4556.456622  3918.323954  2.657230  3.107569  6.242557
60311 43642.0 -3857.624634 -4525.133807  3980.534841  2.699315  3.156937  6.199508
60311 43652.0 -3830.422283 -4493.319041  4042.311869  2.741105  3.205959  6.155786
60311 43662.0 -3802.803529 -4461.015807  4103.648324  2.782595  3.254629  6.111394
60311 43672.0 -3774.771397 -4428.227640  4164.537545  2.823780  3.302944  6.066340
60311 43682.0 -3746.328953 -4394.958130  4224.972919  2.864657  3.350897  6.020626
60311 43692.0 -3717.479312 -4361.210917  4284.947883  2.905219  3.398484  5.974258
60311 43702.0 -3688.225628 -4326.989693  4344.455924  2.945464  3.445699  5.927242
60311 43712.0 -3658.571103 -4292.298203  4403.490583  2.985387  3.492536  5.879583
60311 43722.0 -3628.518979 -4257.140240  4462.045452  3.024983  3.538992  5.831285
60311 43732.0 -3598.072545 -4221.519650  4520.114176  3.064248  3.585061  5.782355
60311 43742.0 -3567.235128 -4185.440328  4577.690455  3.103179  3.630738  5.732797
60311 43752.0 -3536.010100 -4148.906219  4634.768041  3.141770  3.676018  5.682617
60311 43762.0 -3504.400874 -4111.921315  4691.340743  3.180018  3.720896  5.631821
60311 43772.0 -3472.410906 -4074.489659  4747.402426  3.217918  3.765367  5.580414
60311 43782.0 -3440.043690 -4036.615342  4802.947010  3.255466  3.809427  5.528402
60311 43792.0 -3407.302764 -3998.302501  4857.968472  3.292659  3.853071  5.475791
60311 43802.0 -3374.191703 -3959.555322  4912.460848  3.329493  3.896294  5.422586
60311 43812.0 -3340.714124 -3920.378037  4966.418232  3.365962  3.939092  5.368793
60311 43822.0 -3306.873684 -3880.774925  5019.834776  3.402064  3.981459  5.314419
60311 43832.0 -3272.674076 -3840.750309  5072.704692  3.437795  4.023391  5.259469
60311 43842.0 -3238.119036 -3800.308559  5125.022253  3.473150  4.064885  5.203949
60311 43852.0 -3203.212333 -3759.454090  5176.781790  3.508127  4.105935  5.147865
60311 43862.0 -3167.957779 -3718.191359  5227.977699  3.542720  4.146536  5.091224
60311 43872.0 -3132.359219 -3676.524870  5278.604435  3.576927  4.186686  5.034032
60311 43882.0 -3096.420538 -3634.459168  5328.656518  3.610744  4.226378  4.976294
60311 43892.0 -3060.145656 -3591.998842  5378.128528  3.644167  4.265610  4.918018
60311 43902.0 -3023.538529 -3549.148523  5427.015112  3.677192  4.304376  4.859210
60311 43912.0 -2986.603149 -3505.912884  5475.310979  3.709817  4.342673  4.799876
60311 43922.0 -2949.343542 -3462.296637  5523.010902  3.742037  4.380497  4.740023
60311 43932.0 -2911.763772 -3418.304539  5570.109723  3.773849  4.417843  4.679656
60311 43942.0 -2873.867933 -3373.941384  5616.602345  3.805250  4.454708  4.618784
60311 43952.0 -2835.660156 -3329.212007  5662.483741  3.836236  4.491087  4.557412
60311 43962.0 -2797.144604 -3284.121282  5707.748949  3.866804  4.526977  4.495548
60311 43972.0 -2758.325472 -3238.674120  5752.393076  3.896951  4.562373  4.433197
60311 43982.0 -2719.206990 -3192.875472  5796.411295  3.926674  4.597273  4.370367
60311 43992.0 -2679.793417 -3146.730327  5839.798848  3.955969  4.631672  4.307065
60311 44002.0 -2640.089045 -3100.243709  5882.551046  3.984833  4.665567  4.243298
60311 44012.0 -2600.098198 -3053.420679  5924.663270  4.013264  4.698954  4.179071
60311 44022.0 -2559.825229 -3006.266335  5966.130970  4.041257  4.731829  4.114394
60311 44032.0 -2519.274520 -2958.785809  6006.949667  4.068811  4.764190  4.049272
60311 44042.0 -2478.450487 -2910.984269  6047.114951  4.095922  4.796032  3.983713
60311 44052.0 -2437.357569 -2862.866915  6086.622486  4.122587  4.827352  3.917723
60311 44062.0 -2396.000239 -2814.438984  6125.468004  4.148804  4.858147  3.851311
60311 44072.0 -2354.382995 -2765.705742  6163.647313  4.174569  4.888413  3.784482
60311 44082.0 -2312.510363 -2716.672490  6201.156291  4.199881  4.918148  3.717246
60311 44092.0 -2270.386898 -2667.344562  6237.990889  4.224736  4.947348  3.649608
60311 44102.0 -2228.017180 -2617.727320  6274.147132  4.249131  4.976010  3.581576
60311 44112.0 -2185.405814 -2567.826158  6309.621118  4.273065  5.004132  3.513158
60311 44122.0 -2142.557434 -2517.646503  6344.409021  4.296534  5.031709  3.444360
60311 44132.0 -2099.476696 -2467.193806  6378.507087  4.319536  5.058739  3.375192
60311 44142.0 -2056.168282 -2416.473553  6411.911638  4.342068  5.085220  3.305659
60311 44152.0 -2012.636899 -2365.491254  6444.619072  4.364129  5.111148  3.235769
60311 44162.0 -1968.887276 -2314.252447  6476.625860  4.385716  5.136521  3.165531
60311 44172.0 -1924.924165 -2262.762701  6507.928553  4.406826  5.161335  3.094951
60311 44182.0 -1880.752343 -2211.027607  6538.523775  4.427458  5.185590  3.024038
60311 44192.0 -1836.376606 -2159.052785  6568.408227  4.447609  5.209281  2.952799
60311 44202.0 -1791.801774 -2106.843878  6597.578689  4.467277  5.232406  2.881241
60311 44212.0 -1747.032686 -2054.406557  6626.032017  4.486460  5.254963  2.809373
60311 44222.0 -1702.074204 -2001.746513  6653.765143  4.505155  5.276950  2.737202
60311 44232.0 -1656.931208 -1948.869464  6680.775079  4.523362  5.298364  2.664736
60311 44242.0 -1611.608599 -1895.781150  6707.058915  4.541078  5.319203  2.591984
60311 44252.0 -1566.111294 -1842.487333  6732.613820  4.558301  5.339464  2.518951
60311 44262.0 -1520.444233 -1788.993796  6757.437039  4.575029  5.359146  2.445648
60311 44272.0 -1474.612370 -1735.306344  6781.525900  4.591261  5.378247  2.372081
60311 44282.0 -1428.620679 -1681.430802  6804.877807  4.606994  5.396764  2.298258
60311 44292.0 -1382.474149 -1627.373016  6827.490245  4.622228  5.414696  2.224189
60311 44302.0 -1336.177786 -1573.138850  6849.360778  4.636961  5.432040  2.149879
60311 44312.0 -1289.736613 -1518.734187  6870.487053  4.651190  5.448795  2.075338
60311 44322.0 -1243.155666 -1464.164928  6890.866792  4.664915  5.464959  2.000573
60311 44332.0 -1196.439998 -1409.436990  6910.497803  4.678134  5.480530  1.925594
60311 44342.0 -1149.594674 -1354.556311  6929.377972  4.690846  5.495507  1.850406
60311 44352.0 -1102.624775 -1299.528839  6947.505264  4.703049  5.509888  1.775020
60311 44362.0 -1055.535392 -1244.360543  6964.877730  4.714742  5.523672  1.699442
60311 44372.0 -1008.331633 -1189.057402  6981.493498  4.725924  5.536856  1.623682
